LANDSAT 9               
1 49260U 21088A   24194.92188086  .00000692  00000+0  16376-3 0  9994
2 49260  98.2307 264.1857 0001328  94.6742 265.4608 14.57099136148448
